STARLETTE
1 07646U 75010A   24349.15954799 -.00000160  00000+0 -11097-4 0  9997
2 07646  49.8227 115.6423 0205568  46.0199 315.7443 13.82338312518447
LAGEOS 1
1 08820U 76039A   24347.24421404  .00000026  00000+0  00000+0 0  9990
2 08820 109.8528 350.2823 0044046  60.0876 292.2661  6.38664847877889
AJISAI (EGS)
1 16908U 86061A   24349.18174542 -.00000090  00000+0  50871-4 0  9993
2 16908  50.0112  38.6410 0011329 219.9946 161.0592 12.44509296412253
COSMOS 1989 (ETALON 1)
1 19751U 89001C   24348.57361733 -.00000035  00000+0  00000+0 0  9994
2 19751  64.6398  91.0727 0023712 216.3002 230.0673  2.13155990279639
COSMOS 2024 (ETALON 2)
1 20026U 89039C   24348.60298112 -.00000060  00000+0  00000+0 0  9994
2 20026  65.2532 329.4386 0019853 216.5358 315.2994  2.13204306276768
LAGEOS 2
1 22195U 92070B   24348.82118256 -.00000009  00000+0  00000+0 0  9999
2 22195  52.6514 254.4809 0137251 306.3352  87.9879  6.47293852759990
STELLA
1 22824U 93061B   24348.62020605 -.00000007  00000+0  15916-4 0  9992
2 22824  98.8543  37.4712 0007105  44.7448 109.3032 14.27444062626225
LARETS
1 27944U 03042F   24349.11893998  .00000184  00000+0  45018-4 0  9999
2 27944  98.3398 131.2025 0011423 318.0932  41.9394 14.63663079132976
LARES
1 38077U 12006A   24348.46925134 -.00000034  00000+0  27923-4 0  9993
2 38077  69.4883 152.9243 0010162 215.2217 144.8139 12.54932032587978
LARES-2
1 53105U 22080A   24346.66192066  .00000023  00000+0  00000+0 0  9994
2 53105  70.1360 134.8330 0004778  96.8122 263.2935  6.38965181 56366
